STARLINK-36587          
1 67532U 26014A   26052.47080021  .00421203  00000+0  20781-2 0  9994
2 67532  97.2820 296.6583 0004156  53.2693 306.8956 15.80994171  6026
STARLINK-36417          
1 67533U 26014B   26052.20939431  .00287582  00000+0  18642-2 0  9997
2 67533  97.2832 296.2465 0002437  74.6398 285.5136 15.75196561  5971
STARLINK-36576          
1 67534U 26014C   26052.42750298  .00239870  00000+0  15579-2 0  9997
2 67534  97.2833 296.5633 0001358 126.4099 233.7292 15.75284781  6014
STARLINK-36574          
1 67535U 26014D   26052.50002314 -.00042003  00000+0 -28199-3 0  9991
2 67535  97.2845 296.6692 0002852  87.5542  29.5247 15.75194669  6087
STARLINK-36572          
1 67536U 26014E   26052.51326978  .00253904  00000+0  16472-2 0  9990
2 67536  97.2820 296.6020 0002685  54.9808 305.1709 15.75271059  6022
STARLINK-36561          
1 67537U 26014F   26052.45574605  .00264667  00000+0  17170-2 0  9990
2 67537  97.2822 296.5227 0003100  67.0340 293.1252 15.75240917  6019
STARLINK-36397          
1 67538U 26014G   26052.20550351  .00264033  00000+0  17189-2 0  9993
2 67538  97.2844 296.2524 0002177 156.2557 203.8809 15.75162011  5973
STARLINK-36573          
1 67539U 26014H   26052.22915865  .00246317  00000+0  16043-2 0  9994
2 67539  97.2848 296.3715 0001538  49.9102 310.2298 15.75201887  5986
STARLINK-36585          
1 67540U 26014J   26052.19739765  .00255950  00000+0  16651-2 0  9993
2 67540  97.2821 296.2587 0002399  72.8460 287.3067 15.75201070  5974
STARLINK-36579          
1 67541U 26014K   26052.18963232  .00244465  00000+0  15958-2 0  9999
2 67541  97.2834 296.2744 0002610  85.5860 274.5704 15.75153855  5978
STARLINK-35934          
1 67542U 26014L   26052.50002314 -.00072206  00000+0 -48741-3 0  9992
2 67542  97.2849 296.6813 0001543  90.8427  60.2394 15.75185324  6071
STARLINK-36581          
1 67543U 26014M   26052.22704267  .00335007  00000+0  21578-2 0  9995
2 67543  97.2838 296.3748 0001751  86.5703 273.5763 15.75213139  5988
