CCSDS_OMM_VERS = 2.0
CREATION_DATE  = 
ORIGINATOR     = 

OBJECT_NAME    = STARLINK-36587
OBJECT_ID      = 2026-014A
CENTER_NAME    = EARTH
REF_FRAME      = TEME
TIME_SYSTEM    = UTC
MEAN_ELEMENT_THEORY = SGP/SGP4

EPOCH          = 2026-02-21T11:17:57.138144
MEAN_MOTION    = 15.80994171
ECCENTRICITY   = .0004156
INCLINATION    = 97.2820
RA_OF_ASC_NODE = 296.6583
ARG_OF_PERICENTER = 53.2693
MEAN_ANOMALY   = 306.8956

EPHEMERIS_TYPE = 0
CLASSIFICATION_TYPE = U
NORAD_CAT_ID   = 67532
ELEMENT_SET_NO = 999
REV_AT_EPOCH   = 602
BSTAR          = .20781E-2
MEAN_MOTION_DOT = .421203E-2
MEAN_MOTION_DDOT = 0

CCSDS_OMM_VERS = 2.0
CREATION_DATE  = 
ORIGINATOR     = 

OBJECT_NAME    = STARLINK-36417
OBJECT_ID      = 2026-014B
CENTER_NAME    = EARTH
REF_FRAME      = TEME
TIME_SYSTEM    = UTC
MEAN_ELEMENT_THEORY = SGP/SGP4

EPOCH          = 2026-02-21T05:01:31.668384
MEAN_MOTION    = 15.75196561
ECCENTRICITY   = .0002437
INCLINATION    = 97.2832
RA_OF_ASC_NODE = 296.2465
ARG_OF_PERICENTER = 74.6398
MEAN_ANOMALY   = 285.5136

EPHEMERIS_TYPE = 0
CLASSIFICATION_TYPE = U
NORAD_CAT_ID   = 67533
ELEMENT_SET_NO = 999
REV_AT_EPOCH   = 597
BSTAR          = .18642E-2
MEAN_MOTION_DOT = .287582E-2
MEAN_MOTION_DDOT = 0

CCSDS_OMM_VERS = 2.0
CREATION_DATE  = 
ORIGINATOR     = 

OBJECT_NAME    = STARLINK-36576
OBJECT_ID      = 2026-014C
CENTER_NAME    = EARTH
REF_FRAME      = TEME
TIME_SYSTEM    = UTC
MEAN_ELEMENT_THEORY = SGP/SGP4

EPOCH          = 2026-02-21T10:15:36.257472
MEAN_MOTION    = 15.75284781
ECCENTRICITY   = .0001358
INCLINATION    = 97.2833
RA_OF_ASC_NODE = 296.5633
ARG_OF_PERICENTER = 126.4099
MEAN_ANOMALY   = 233.7292

EPHEMERIS_TYPE = 0
CLASSIFICATION_TYPE = U
NORAD_CAT_ID   = 67534
ELEMENT_SET_NO = 999
REV_AT_EPOCH   = 601
BSTAR          = .15579E-2
MEAN_MOTION_DOT = .23987E-2
MEAN_MOTION_DDOT = 0

CCSDS_OMM_VERS = 2.0
CREATION_DATE  = 
ORIGINATOR     = 

OBJECT_NAME    = STARLINK-36574
OBJECT_ID      = 2026-014D
CENTER_NAME    = EARTH
REF_FRAME      = TEME
TIME_SYSTEM    = UTC
MEAN_ELEMENT_THEORY = SGP/SGP4

EPOCH          = 2026-02-21T12:00:01.999296
MEAN_MOTION    = 15.75194669
ECCENTRICITY   = .0002852
INCLINATION    = 97.2845
RA_OF_ASC_NODE = 296.6692
ARG_OF_PERICENTER = 87.5542
MEAN_ANOMALY   = 29.5247

EPHEMERIS_TYPE = 0
CLASSIFICATION_TYPE = U
NORAD_CAT_ID   = 67535
ELEMENT_SET_NO = 999
REV_AT_EPOCH   = 608
BSTAR          = -.28199E-3
MEAN_MOTION_DOT = -.42003E-3
MEAN_MOTION_DDOT = 0

CCSDS_OMM_VERS = 2.0
CREATION_DATE  = 
ORIGINATOR     = 

OBJECT_NAME    = STARLINK-36572
OBJECT_ID      = 2026-014E
CENTER_NAME    = EARTH
REF_FRAME      = TEME
TIME_SYSTEM    = UTC
MEAN_ELEMENT_THEORY = SGP/SGP4

EPOCH          = 2026-02-21T12:19:06.508992
MEAN_MOTION    = 15.75271059
ECCENTRICITY   = .0002685
INCLINATION    = 97.2820
RA_OF_ASC_NODE = 296.6020
ARG_OF_PERICENTER = 54.9808
MEAN_ANOMALY   = 305.1709

EPHEMERIS_TYPE = 0
CLASSIFICATION_TYPE = U
NORAD_CAT_ID   = 67536
ELEMENT_SET_NO = 999
REV_AT_EPOCH   = 602
BSTAR          = .16472E-2
MEAN_MOTION_DOT = .253904E-2
MEAN_MOTION_DDOT = 0

CCSDS_OMM_VERS = 2.0
CREATION_DATE  = 
ORIGINATOR     = 

OBJECT_NAME    = STARLINK-36561
OBJECT_ID      = 2026-014F
CENTER_NAME    = EARTH
REF_FRAME      = TEME
TIME_SYSTEM    = UTC
MEAN_ELEMENT_THEORY = SGP/SGP4

EPOCH          = 2026-02-21T10:56:16.458720
MEAN_MOTION    = 15.75240917
ECCENTRICITY   = .00031
INCLINATION    = 97.2822
RA_OF_ASC_NODE = 296.5227
ARG_OF_PERICENTER = 67.0340
MEAN_ANOMALY   = 293.1252

EPHEMERIS_TYPE = 0
CLASSIFICATION_TYPE = U
NORAD_CAT_ID   = 67537
ELEMENT_SET_NO = 999
REV_AT_EPOCH   = 601
BSTAR          = .1717E-2
MEAN_MOTION_DOT = .264667E-2
MEAN_MOTION_DDOT = 0

CCSDS_OMM_VERS = 2.0
CREATION_DATE  = 
ORIGINATOR     = 

OBJECT_NAME    = STARLINK-36397
OBJECT_ID      = 2026-014G
CENTER_NAME    = EARTH
REF_FRAME      = TEME
TIME_SYSTEM    = UTC
MEAN_ELEMENT_THEORY = SGP/SGP4

EPOCH          = 2026-02-21T04:55:55.503264
MEAN_MOTION    = 15.75162011
ECCENTRICITY   = .0002177
INCLINATION    = 97.2844
RA_OF_ASC_NODE = 296.2524
ARG_OF_PERICENTER = 156.2557
MEAN_ANOMALY   = 203.8809

EPHEMERIS_TYPE = 0
CLASSIFICATION_TYPE = U
NORAD_CAT_ID   = 67538
ELEMENT_SET_NO = 999
REV_AT_EPOCH   = 597
BSTAR          = .17189E-2
MEAN_MOTION_DOT = .264033E-2
MEAN_MOTION_DDOT = 0

CCSDS_OMM_VERS = 2.0
CREATION_DATE  = 
ORIGINATOR     = 

OBJECT_NAME    = STARLINK-36573
OBJECT_ID      = 2026-014H
CENTER_NAME    = EARTH
REF_FRAME      = TEME
TIME_SYSTEM    = UTC
MEAN_ELEMENT_THEORY = SGP/SGP4

EPOCH          = 2026-02-21T05:29:59.307360
MEAN_MOTION    = 15.75201887
ECCENTRICITY   = .0001538
INCLINATION    = 97.2848
RA_OF_ASC_NODE = 296.3715
ARG_OF_PERICENTER = 49.9102
MEAN_ANOMALY   = 310.2298

EPHEMERIS_TYPE = 0
CLASSIFICATION_TYPE = U
NORAD_CAT_ID   = 67539
ELEMENT_SET_NO = 999
REV_AT_EPOCH   = 598
BSTAR          = .16043E-2
MEAN_MOTION_DOT = .246317E-2
MEAN_MOTION_DDOT = 0

CCSDS_OMM_VERS = 2.0
CREATION_DATE  = 
ORIGINATOR     = 

OBJECT_NAME    = STARLINK-36585
OBJECT_ID      = 2026-014J
CENTER_NAME    = EARTH
REF_FRAME      = TEME
TIME_SYSTEM    = UTC
MEAN_ELEMENT_THEORY = SGP/SGP4

EPOCH          = 2026-02-21T04:44:15.156960
MEAN_MOTION    = 15.75201070
ECCENTRICITY   = .0002399
INCLINATION    = 97.2821
RA_OF_ASC_NODE = 296.2587
ARG_OF_PERICENTER = 72.8460
MEAN_ANOMALY   = 287.3067

EPHEMERIS_TYPE = 0
CLASSIFICATION_TYPE = U
NORAD_CAT_ID   = 67540
ELEMENT_SET_NO = 999
REV_AT_EPOCH   = 597
BSTAR          = .16651E-2
MEAN_MOTION_DOT = .25595E-2
MEAN_MOTION_DDOT = 0

CCSDS_OMM_VERS = 2.0
CREATION_DATE  = 
ORIGINATOR     = 

OBJECT_NAME    = STARLINK-36579
OBJECT_ID      = 2026-014K
CENTER_NAME    = EARTH
REF_FRAME      = TEME
TIME_SYSTEM    = UTC
MEAN_ELEMENT_THEORY = SGP/SGP4

EPOCH          = 2026-02-21T04:33:04.232448
MEAN_MOTION    = 15.75153855
ECCENTRICITY   = .000261
INCLINATION    = 97.2834
RA_OF_ASC_NODE = 296.2744
ARG_OF_PERICENTER = 85.5860
MEAN_ANOMALY   = 274.5704

EPHEMERIS_TYPE = 0
CLASSIFICATION_TYPE = U
NORAD_CAT_ID   = 67541
ELEMENT_SET_NO = 999
REV_AT_EPOCH   = 597
BSTAR          = .15958E-2
MEAN_MOTION_DOT = .244465E-2
MEAN_MOTION_DDOT = 0

CCSDS_OMM_VERS = 2.0
CREATION_DATE  = 
ORIGINATOR     = 

OBJECT_NAME    = STARLINK-35934
OBJECT_ID      = 2026-014L
CENTER_NAME    = EARTH
REF_FRAME      = TEME
TIME_SYSTEM    = UTC
MEAN_ELEMENT_THEORY = SGP/SGP4

EPOCH          = 2026-02-21T12:00:01.999296
MEAN_MOTION    = 15.75185324
ECCENTRICITY   = .0001543
INCLINATION    = 97.2849
RA_OF_ASC_NODE = 296.6813
ARG_OF_PERICENTER = 90.8427
MEAN_ANOMALY   = 60.2394

EPHEMERIS_TYPE = 0
CLASSIFICATION_TYPE = U
NORAD_CAT_ID   = 67542
ELEMENT_SET_NO = 999
REV_AT_EPOCH   = 607
BSTAR          = -.48741E-3
MEAN_MOTION_DOT = -.72206E-3
MEAN_MOTION_DDOT = 0

CCSDS_OMM_VERS = 2.0
CREATION_DATE  = 
ORIGINATOR     = 

OBJECT_NAME    = STARLINK-36581
OBJECT_ID      = 2026-014M
CENTER_NAME    = EARTH
REF_FRAME      = TEME
TIME_SYSTEM    = UTC
MEAN_ELEMENT_THEORY = SGP/SGP4

EPOCH          = 2026-02-21T05:26:56.486688
MEAN_MOTION    = 15.75213139
ECCENTRICITY   = .0001751
INCLINATION    = 97.2838
RA_OF_ASC_NODE = 296.3748
ARG_OF_PERICENTER = 86.5703
MEAN_ANOMALY   = 273.5763

EPHEMERIS_TYPE = 0
CLASSIFICATION_TYPE = U
NORAD_CAT_ID   = 67543
ELEMENT_SET_NO = 999
REV_AT_EPOCH   = 598
BSTAR          = .21578E-2
MEAN_MOTION_DOT = .335007E-2
MEAN_MOTION_DDOT = 0

